start=new Date('2023-02-17T00:00:00.000Z').valueOf();
sats=[{"RA_OF_ASC_NODE":"261.8849","MEAN_ANOMALY":"278.2353","CLASSIFICATION_TYPE":"U","ECCENTRICITY":"0.00014660","CENTER_NAME":"EARTH","EPOCH":"2023-02-17T00:09:17.416512","MEAN_MOTION":"15.08842588","GP_ID":"225690836","COUNTRY_CODE":"US","SITE":"AFETR","PERIAPSIS":"538.723","BSTAR":"0.00019002000000","MEAN_MOTION_DDOT":"0.0000000000000","REF_FRAME":"TEME","FILE":"3799233","RCS_SIZE":"LARGE","TIME_SYSTEM":"UTC","ELEMENT_SET_NO":"999","DECAY_DATE":null,"OBJECT_TYPE":"PAYLOAD","TLE_LINE2":"2 53859  53.2149 261.8849 0001466  81.8806 278.2353 15.08842588 23927","MEAN_MOTION_DOT":"0.00002738","REV_AT_EPOCH":"2392","OBJECT_NAME":"STARLINK-4790","OBJECT_ID":"2022-114AT","LAUNCH_DATE":"2022-09-19","TLE_LINE1":"1 53859U 22114AT  23048.00645158  .00002738  00000-0  19002-3 0  9991","APOAPSIS":"540.752","PERIOD":"95.437","EPHEMERIS_TYPE":"0","ARG_OF_PERICENTER":"81.8806","INCLINATION":"53.2149","MEAN_ELEMENT_THEORY":"SGP4","SEMIMAJOR_AXIS":"6917.872","NORAD_CAT_ID":"53859"},{"TLE_LINE1":"1 53860U 22114AU  23047.90479035  .00000152  00000-0  27633-4 0  9998","LAUNCH_DATE":"2022-09-19","EPHEMERIS_TYPE":"0","APOAPSIS":"540.549","PERIOD":"95.437","INCLINATION":"53.2166","ARG_OF_PERICENTER":"79.0511","NORAD_CAT_ID":"53860","SEMIMAJOR_AXIS":"6917.845","MEAN_ELEMENT_THEORY":"SGP4","TIME_SYSTEM":"UTC","ELEMENT_SET_NO":"999","RCS_SIZE":"LARGE","OBJECT_TYPE":"PAYLOAD","DECAY_DATE":null,"TLE_LINE2":"2 53860  53.2166 257.6786 0001212  79.0511 281.0617 15.08851477 24273","MEAN_MOTION_DOT":"0.00000152","OBJECT_ID":"2022-114AU","OBJECT_NAME":"STARLINK-4799","REV_AT_EPOCH":"2427","PERIAPSIS":"538.872","SITE":"AFETR","REF_FRAME":"TEME","BSTAR":"0.00002763300000","MEAN_MOTION_DDOT":"0.0000000000000","FILE":"3799178","MEAN_ANOMALY":"281.0617","CLASSIFICATION_TYPE":"U","ECCENTRICITY":"0.00012120","RA_OF_ASC_NODE":"257.6786","MEAN_MOTION":"15.08851477","GP_ID":"225687819","EPOCH":"2023-02-16T21:42:53.886240","CENTER_NAME":"EARTH","COUNTRY_CODE":"US"},{"OBJECT_TYPE":"PAYLOAD","DECAY_DATE":null,"TIME_SYSTEM":"UTC","ELEMENT_SET_NO":"999","RCS_SIZE":"LARGE","OBJECT_ID":"2022-114AV","REV_AT_EPOCH":"2450","OBJECT_NAME":"STARLINK-4781","TLE_LINE2":"2 53861  53.2176 257.9958 0000977  81.5976 278.5127 15.08844609 24501","MEAN_MOTION_DOT":"-0.00001345","EPHEMERIS_TYPE":"0","APOAPSIS":"540.407","PERIOD":"95.437","TLE_LINE1":"1 53861U 22114AV  23047.84223896 -.00001345  00000-0 -66417-4 0  9994","LAUNCH_DATE":"2022-09-19","MEAN_ELEMENT_THEORY":"SGP4","SEMIMAJOR_AXIS":"6917.866","NORAD_CAT_ID":"53861","ARG_OF_PERICENTER":"81.5976","INCLINATION":"53.2176","MEAN_MOTION":"15.08844609","GP_ID":"225689071","EPOCH":"2023-02-16T20:12:49.446144","CENTER_NAME":"EARTH","MEAN_ANOMALY":"278.5127","ECCENTRICITY":"0.00009770","CLASSIFICATION_TYPE":"U","RA_OF_ASC_NODE":"257.9958","COUNTRY_CODE":"US","PERIAPSIS":"539.055","SITE":"AFETR","FILE":"3799178","REF_FRAME":"TEME","BSTAR":"-0.00006641700000","MEAN_MOTION_DDOT":"0.0000000000000"},{"BSTAR":"-0.00001541300000","MEAN_MOTION_DDOT":"0.0000000000000","REF_FRAME":"TEME","FILE":"3799178","SITE":"AFETR","PERIAPSIS":"538.997","COUNTRY_CODE":"US","RA_OF_ASC_NODE":"257.6340","MEAN_ANOMALY":"273.5387","ECCENTRICITY":"0.00010880","CLASSIFICATION_TYPE":"U","EPOCH":"2023-02-16T21:32:17.566656","CENTER_NAME":"EARTH","MEAN_MOTION":"15.08838523","GP_ID":"225688819","ARG_OF_PERICENTER":"86.5730","INCLINATION":"53.2162","NORAD_CAT_ID":"53862","SEMIMAJOR_AXIS":"6917.885","MEAN_ELEMENT_THEORY":"SGP4","LAUNCH_DATE":"2022-09-19","TLE_LINE1":"1 53862U 22114AW  23047.89742554 -.00000533  00000-0 -15413-4 0  9995","APOAPSIS":"540.503","PERIOD":"95.438","EPHEMERIS_TYPE":"0","TLE_LINE2":"2 53862  53.2162 257.6340 0001088  86.5730 273.5387 15.08838523 24518","MEAN_MOTION_DOT":"-0.00000533","OBJECT_NAME":"STARLINK-4792","REV_AT_EPOCH":"2451","OBJECT_ID":"2022-114AW","RCS_SIZE":"LARGE","TIME_SYSTEM":"UTC","ELEMENT_SET_NO":"999","DECAY_DATE":null,"OBJECT_TYPE":"PAYLOAD"},{"FILE":"3799233","BSTAR":"0.00010067000000","MEAN_MOTION_DDOT":"0.0000000000000","REF_FRAME":"TEME","SITE":"AFETR","PERIAPSIS":"539.207","COUNTRY_CODE":"US","CENTER_NAME":"EARTH","EPOCH":"2023-02-16T21:44:16.542528","MEAN_MOTION":"15.08847778","GP_ID":"225691343","RA_OF_ASC_NODE":"257.6835","MEAN_ANOMALY":"262.5223","CLASSIFICATION_TYPE":"U","ECCENTRICITY":"0.00007440","MEAN_ELEMENT_THEORY":"SGP4","SEMIMAJOR_AXIS":"6917.857","NORAD_CAT_ID":"53863","INCLINATION":"53.2167","ARG_OF_PERICENTER":"97.5854","APOAPSIS":"540.236","PERIOD":"95.437","EPHEMERIS_TYPE":"0","LAUNCH_DATE":"2022-09-19","TLE_LINE1":"1 53863U 22114AX  23047.90574702  .00001315  00000-0  10067-3 0  9992","OBJECT_NAME":"STARLINK-4788","REV_AT_EPOCH":"2397","OBJECT_ID":"2022-114AX","TLE_LINE2":"2 53863  53.2167 257.6835 0000744  97.5854 262.5223 15.08847778 23978","MEAN_MOTION_DOT":"0.00001315","DECAY_DATE":null,"OBJECT_TYPE":"PAYLOAD","RCS_SIZE":"LARGE","TIME_SYSTEM":"UTC","ELEMENT_SET_NO":"999"},{"TLE_LINE2":"2 53864  53.2153 257.3499 0001261  85.9062 274.2074 15.08841454 23973","MEAN_MOTION_DOT":"-0.00000314","OBJECT_ID":"2022-114AY","OBJECT_NAME":"STARLINK-4779","REV_AT_EPOCH":"2397","TIME_SYSTEM":"UTC","ELEMENT_SET_NO":"999","RCS_SIZE":"LARGE","OBJECT_TYPE":"PAYLOAD","DECAY_DATE":null,"INCLINATION":"53.2153","ARG_OF_PERICENTER":"85.9062","SEMIMAJOR_AXIS":"6917.876","MEAN_ELEMENT_THEORY":"SGP4","NORAD_CAT_ID":"53864","TLE_LINE1":"1 53864U 22114AY  23047.85320807 -.00000314  00000-0 -16221-5 0  9992","LAUNCH_DATE":"2022-09-19","EPHEMERIS_TYPE":"0","APOAPSIS":"540.613","PERIOD":"95.437","COUNTRY_CODE":"US","MEAN_ANOMALY":"274.2074","CLASSIFICATION_TYPE":"U","ECCENTRICITY":"0.00012610","RA_OF_ASC_NODE":"257.3499","MEAN_MOTION":"15.08841454","GP_ID":"225690846","EPOCH":"2023-02-16T20:28:37.177248","CENTER_NAME":"EARTH","REF_FRAME":"TEME","BSTAR":"-0.00000162210000","MEAN_MOTION_DDOT":"0.0000000000000","FILE":"3799233","PERIAPSIS":"538.869","SITE":"AFETR"},{"SEMIMAJOR_AXIS":"6917.876","MEAN_ELEMENT_THEORY":"SGP4","NORAD_CAT_ID":"53865","INCLINATION":"53.2163","ARG_OF_PERICENTER":"85.5735","APOAPSIS":"540.473","PERIOD":"95.437","EPHEMERIS_TYPE":"0","LAUNCH_DATE":"2022-09-19","TLE_LINE1":"1 53865U 22114AZ  23047.87258560  .00000326  00000-0  38587-4 0  9990","OBJECT_NAME":"STARLINK-4785","REV_AT_EPOCH":"2451","OBJECT_ID":"2022-114AZ","TLE_LINE2":"2 53865  53.2163 257.4727 0001059  85.5735 274.5378 15.08841507 24518","MEAN_MOTION_DOT":"0.00000326","DECAY_DATE":null,"OBJECT_TYPE":"PAYLOAD","RCS_SIZE":"LARGE","TIME_SYSTEM":"UTC","ELEMENT_SET_NO":"999","FILE":"3799178","BSTAR":"0.00003858700000","MEAN_MOTION_DDOT":"0.0000000000000","REF_FRAME":"TEME","SITE":"AFETR","PERIAPSIS":"539.008","COUNTRY_CODE":"US","EPOCH":"2023-02-16T20:56:31.395840","CENTER_NAME":"EARTH","MEAN_MOTION":"15.08841507","GP_ID":"225688571","RA_OF_ASC_NODE":"257.4727","MEAN_ANOMALY":"274.5378","ECCENTRICITY":"0.00010590","CLASSIFICATION_TYPE":"U"},{"MEAN_MOTION_DDOT":"0.0000000000000","BSTAR":"-0.06255300000000","REF_FRAME":"TEME","FILE":"3796572","SITE":"AFETR","PERIAPSIS":"514.904","COUNTRY_CODE":"US","RA_OF_ASC_NODE":"247.1540","CLASSIFICATION_TYPE":"U","ECCENTRICITY":"0.00014960","MEAN_ANOMALY":"102.1484","EPOCH":"2023-02-14T20:00:01.000224","CENTER_NAME":"EARTH","GP_ID":"225580637","MEAN_MOTION":"15.16663467","ARG_OF_PERICENTER":"84.8317","INCLINATION":"53.2089","MEAN_ELEMENT_THEORY":"SGP4","SEMIMAJOR_AXIS":"6894.070","NORAD_CAT_ID":"53866","LAUNCH_DATE":"2022-09-19","TLE_LINE1":"1 53866U 22114BA  23045.83334491 -.01142384  00000-0 -62553-1 0  9994","PERIOD":"94.945","APOAPSIS":"516.966","EPHEMERIS_TYPE":"0","MEAN_MOTION_DOT":"-0.01142384","TLE_LINE2":"2 53866  53.2089 247.1540 0001496  84.8317 102.1484 15.16663467 23933","REV_AT_EPOCH":"2393","OBJECT_NAME":"STARLINK-4762","OBJECT_ID":"2022-114BA","RCS_SIZE":"LARGE","ELEMENT_SET_NO":"999","TIME_SYSTEM":"UTC","DECAY_DATE":null,"OBJECT_TYPE":"PAYLOAD"},{"TLE_LINE2":"2 53867  53.2163 247.9424 0000994  92.9495 267.1611 15.08843539 24649","MEAN_MOTION_DOT":"-0.00000306","OBJECT_ID":"2022-114BB","REV_AT_EPOCH":"2464","OBJECT_NAME":"STARLINK-4793","TIME_SYSTEM":"UTC","ELEMENT_SET_NO":"999","RCS_SIZE":"LARGE","OBJECT_TYPE":"PAYLOAD","DECAY_DATE":null,"ARG_OF_PERICENTER":"92.9495","INCLINATION":"53.2163","SEMIMAJOR_AXIS":"6917.870","NORAD_CAT_ID":"53867","MEAN_ELEMENT_THEORY":"SGP4","TLE_LINE1":"1 53867U 22114BB  23047.83210266 -.00000306  00000-0 -11590-5 0  9995","LAUNCH_DATE":"2022-09-19","EPHEMERIS_TYPE":"0","APOAPSIS":"540.422","PERIOD":"95.437","COUNTRY_CODE":"US","MEAN_ANOMALY":"267.1611","ECCENTRICITY":"0.00009940","CLASSIFICATION_TYPE":"U","RA_OF_ASC_NODE":"247.9424","MEAN_MOTION":"15.08843539","GP_ID":"225688070","EPOCH":"2023-02-16T19:58:13.669824","CENTER_NAME":"EARTH","REF_FRAME":"TEME","BSTAR":"-0.00000115900000","MEAN_MOTION_DDOT":"0.0000000000000","FILE":"3799178","PERIAPSIS":"539.047","SITE":"AFETR"},{"COUNTRY_CODE":"US","GP_ID":"225435955","MEAN_MOTION":"15.23271177","CENTER_NAME":"EARTH","EPOCH":"2023-02-14T20:00:01.000224","ECCENTRICITY":"0.00013550","CLASSIFICATION_TYPE":"U","MEAN_ANOMALY":"166.0663","RA_OF_ASC_NODE":"247.0347","FILE":"3792084","REF_FRAME":"TEME","MEAN_MOTION_DDOT":"0.0000000000000","BSTAR":"-0.04110200000000","PERIAPSIS":"495.052","SITE":"AFETR","OBJECT_ID":"2022-114BC","OBJECT_NAME":"STARLINK-4789","REV_AT_EPOCH":"130","MEAN_MOTION_DOT":"-0.00915212","TLE_LINE2":"2 53868  53.2101 247.0347 0001355  88.8885 166.0663 15.23271177  1308","OBJECT_TYPE":"PAYLOAD","DECAY_DATE":null,"ELEMENT_SET_NO":"999","TIME_SYSTEM":"UTC","RCS_SIZE":"LARGE","NORAD_CAT_ID":"53868","SEMIMAJOR_AXIS":"6874.119","MEAN_ELEMENT_THEORY":"SGP4","ARG_OF_PERICENTER":"88.8885","INCLINATION":"53.2101","EPHEMERIS_TYPE":"0","PERIOD":"94.533","APOAPSIS":"496.915","TLE_LINE1":"1 53868U 22114BC  23045.83334491 -.00915212  00000-0 -41102-1 0  9990","LAUNCH_DATE":"2022-09-19"}];
